0 CZ-4B DEB
1 34223U 02024H   13283.72137998  .00000783  00000-0  51630-3 0  4288
2 34223 098.9793 248.8324 0132716 195.4784 289.1876 14.00444505563316
0 CZ-4B DEB
1 34223U 02024H   13285.72161060  .00000781  00000-0  51535-3 0  4290
2 34223 098.9798 250.7975 0132829 189.9385 293.5629 14.00447518563597
0 CZ-4B DEB
1 34223U 02024H   13287.72209641  .00000841  00000-0  55227-3 0  4301
2 34223 098.9806 252.7629 0132911 184.4079 299.2388 14.00451360563873
0 CZ-4B DEB
1 34223U 02024H   13289.72273442  .00000844  00000-0  55393-3 0  4311
2 34223 098.9814 254.7285 0133003 178.8844 305.7037 14.00455287564150
0 CZ-4B DEB
1 34223U 02024H   13291.79320727  .00000861  00000-0  56435-3 0  4328
2 34223 098.9823 256.7630 0133084 173.1772 304.2692 14.00458677564442
0 CZ-4B DEB
1 34223U 02024H   13293.84798924  .00000901  00000-0  58921-3 0  4332
2 34223 098.9829 258.7823 0133146 167.5094 223.7572 14.00462347564730
0 CZ-4B DEB
1 34223U 02024H   13296.14049890  .00000895  00000-0  58570-3 0  4342
2 34223 098.9834 261.0356 0133237 161.1956 261.8066 14.00466975565050
